H1 CPF  1  DLR 2021 11 09 10  8132 technosat            
H2  1704205 6203    42829 2021 11 09 00 00 00 2021 11 16 00 00 00    60 1 1  0 0 0
H9
10 0 59527  14400.000000  0        108090.769       2379587.585      -6562008.677
10 0 59527  14460.000000  0        309437.826       2758228.843      -6404741.702
10 0 59527  14520.000000  0        512746.849       3123569.331      -6220505.751
10 0 59527  14580.000000  0        717043.388       3474060.625      -6010060.087
10 0 59527  14640.000000  0        921334.400       3808222.494      -5774274.381
10 0 59527  14700.000000  0       1124612.946       4124649.294      -5514125.572
10 0 59527  14760.000000  0       1325863.028       4422016.078      -5230694.254
10 0 59527  14820.000000  0       1524064.582       4699084.435      -4925160.612
10 0 59527  14880.000000  0       1718198.559       4954707.995      -4598799.848
10 0 59527  14940.000000  0       1907252.096       5187837.502      -4252977.133
10 0 59527  15000.000000  0       2090223.709       5397525.454      -3889142.194
10 0 59527  15060.000000  0       2266128.522       5582930.365      -3508823.501
10 0 59527  15120.000000  0       2434003.516       5743320.573      -3113622.041
10 0 59527  15180.000000  0       2592912.747       5878077.568      -2705204.696
10 0 59527  15240.000000  0       2741952.515       5986698.793      -2285297.253
10 0 59527  15300.000000  0       2880256.422       6068799.902      -1855677.086
10 0 59527  15360.000000  0       3007000.301       6124116.472      -1418165.513
10 0 59527  15420.000000  0       3121406.963       6152505.093       -974619.884
10 0 59527  15480.000000  0       3222750.748       6153943.856       -526925.475
10 0 59527  15540.000000  0       3310361.832       6128532.249        -76987.200
10 0 59527  15600.000000  0       3383630.293       6076490.423        373278.780
10 0 59527  15660.000000  0       3442009.893       5998157.876        821953.509
10 0 59527  15720.000000  0       3485021.593       5893991.575       1267123.728
10 0 59527  15780.000000  0       3512256.711       5764563.486       1706890.399
10 0 59527  15840.000000  0       3523379.700       5610557.516       2139377.144
10 0 59527  15900.000000  0       3518130.556       5432765.951       2562738.607
10 0 59527  15960.000000  0       3496326.869       5232085.283       2975168.725
10 0 59527  16020.000000  0       3457865.471       5009511.441       3374908.723
10 0 59527  16080.000000  0       3402723.671       4766134.617       3760254.728
10 0 59527  16140.000000  0       3330960.156       4503133.846       4129565.252
10 0 59527  16200.000000  0       3242715.339       4221771.057       4481268.535
10 0 59527  16260.000000  0       3138211.162       3923384.603       4813869.381
10 0 59527  16320.000000  0       3017750.560       3609382.541       5125955.402
10 0 59527  16380.000000  0       2881716.616       3281235.725       5416202.974
10 0 59527  16440.000000  0       2730571.304       2940470.626       5683382.707
10 0 59527  16500.000000  0       2564853.906       2588662.073       5926364.519
10 0 59527  16560.000000  0       2385178.999       2227425.746       6144122.383
10 0 59527  16620.000000  0       2192234.022       1858410.495       6335738.508
10 0 59527  16680.000000  0       1986776.482       1483290.601       6500406.982
10 0 59527  16740.000000  0       1769630.834       1103758.043       6637436.914
10 0 59527  16800.000000  0       1541685.028        721514.780       6746255.077
10 0 59527  16860.000000  0       1303886.771        338265.123       6826408.067
10 0 59527  16920.000000  0       1057239.532        -44291.845       6877564.085
10 0 59527  16980.000000  0        802798.220       -424469.901       6899514.252
10 0 59527  17040.000000  0        541664.592       -800603.203       6892173.271
10 0 59527  17100.000000  0        274982.428      -1171053.570       6855579.639
10 0 59527  17160.000000  0          3932.454      -1534217.638       6789895.368
10 0 59527  17220.000000  0       -270272.922      -1888533.814       6695405.188
10 0 59527  17280.000000  0       -546395.078      -2232488.997       6572515.264
10 0 59527  17340.000000  0       -823174.769      -2564625.052       6421751.377
10 0 59527  17400.000000  0      -1099337.788      -2883544.938       6243756.636
10 0 59527  17460.000000  0      -1373600.735      -3187918.564       6039288.847
10 0 59527  17520.000000  0      -1644676.970      -3476488.388       5809217.441
10 0 59527  17580.000000  0      -1911282.652      -3748074.666       5554519.906
10 0 59527  17640.000000  0      -2172142.858      -4001580.386       5276277.811
10 0 59527  17700.000000  0      -2425997.755      -4235995.841       4975672.326
10 0 59527  17760.000000  0      -2671608.767      -4450402.775       4653979.257
10 0 59527  17820.000000  0      -2907764.651      -4643978.054       4312563.674
10 0 59527  17880.000000  0      -3133287.523      -4815996.972       3952874.148
10 0 59527  17940.000000  0      -3347038.727      -4965836.015       3576436.540
10 0 59527  18000.000000  0      -3547924.527      -5092975.149       3184847.522
10 0 59527  18060.000000  0      -3734901.663      -5196999.663       2779767.799
10 0 59527  18120.000000  0      -3906982.735      -5277601.523       2362915.010
10 0 59527  18180.000000  0      -4063241.363      -5334580.207       1936056.347
10 0 59527  18240.000000  0      -4202817.082      -5367843.006       1501000.941
10 0 59527  18300.000000  0      -4324919.929      -5377404.804       1059592.051
10 0 59527  18360.000000  0      -4428834.721      -5363387.355        613699.119
10 0 59527  18420.000000  0      -4513924.997      -5326018.048        165209.702
10 0 59527  18480.000000  0      -4579636.604      -5265628.182       -283978.697
10 0 59527  18540.000000  0      -4625500.875      -5182650.733       -731966.852
10 0 59527  18600.000000  0      -4651137.388      -5077617.620      -1176862.034
10 0 59527  18660.000000  0      -4656256.279      -4951156.485      -1616786.165
10 0 59527  18720.000000  0      -4640660.124      -4803987.046      -2049883.865
10 0 59527  18780.000000  0      -4604245.363      -4636917.000      -2474330.348
10 0 59527  18840.000000  0      -4547003.275      -4450837.581      -2888339.122
10 0 59527  18900.000000  0      -4469020.500      -4246718.760      -3290169.475
10 0 59527  18960.000000  0      -4370479.112      -4025604.134      -3678133.718
10 0 59527  19020.000000  0      -4251656.245      -3788605.535      -4050604.138
10 0 59527  19080.000000  0      -4112923.309      -3536897.381      -4406019.686
10 0 59527  19140.000000  0      -3954744.745      -3271710.782      -4742892.320
10 0 59527  19200.000000  0      -3777676.358      -2994327.460      -5059812.996
10 0 59527  19260.000000  0      -3582363.237      -2706073.514      -5355457.272
10 0 59527  19320.000000  0      -3369537.296      -2408313.091      -5628590.531
10 0 59527  19380.000000  0      -3140014.452      -2102441.953      -5878072.828
10 0 59527  19440.000000  0      -2894691.439      -1789880.969      -6102863.353
10 0 59527  19500.000000  0      -2634542.230      -1472069.570      -6302024.475
10 0 59527  19560.000000  0      -2360614.112      -1150459.204      -6474725.332
10 0 59527  19620.000000  0      -2074023.463       -826506.820      -6620244.978
10 0 59527  19680.000000  0      -1775951.230       -501668.410      -6737975.076
10 0 59527  19740.000000  0      -1467638.173       -177392.655      -6827422.152
10 0 59527  19800.000000  0      -1150379.892        144885.309      -6888209.482
10 0 59527  19860.000000  0       -825521.541        463750.033      -6920078.645
10 0 59527  19920.000000  0       -494452.287        777811.829      -6922890.589
10 0 59527  19980.000000  0       -158599.566       1085712.681      -6896626.190
10 0 59527  20040.000000  0        180576.790       1386131.873      -6841386.436
10 0 59527  20100.000000  0        521590.649       1677791.525      -6757392.367
10 0 59527  20160.000000  0        862936.011       1959462.039      -6644984.456
10 0 59527  20220.000000  0       1203093.538       2229967.209      -6504621.378
10 0 59527  20280.000000  0       1540537.091       2488189.091      -6336878.455
10 0 59527  20340.000000  0       1873740.468       2733072.722      -6142445.715
10 0 59527  20400.000000  0       2201184.265       2963630.492      -5922125.345
10 0 59527  20460.000000  0       2521362.707       3178946.158      -5676828.742
10 0 59527  20520.000000  0       2832790.507       3378178.608      -5407573.199
10 0 59527  20580.000000  0       3134009.783       3560565.374      -5115478.145
10 0 59527  20640.000000  0       3423596.988       3725425.782      -4801760.878
10 0 59527  20700.000000  0       3700169.762       3872163.709      -4467731.843
10 0 59527  20760.000000  0       3962393.684       4000269.985      -4114789.490
10 0 59527  20820.000000  0       4208988.928       4109324.402      -3744414.693
10 0 59527  20880.000000  0       4438736.755       4198997.281      -3358164.717
10 0 59527  20940.000000  0       4650485.742       4269050.623      -2957666.783
10 0 59527  21000.000000  0       4843157.738       4319338.790      -2544611.299
10 0 59527  21060.000000  0       5015753.590       4349808.786      -2120744.801
10 0 59527  21120.000000  0       5167358.600       4360500.075      -1687862.486
10 0 59527  21180.000000  0       5297147.528       4351543.901      -1247800.445
10 0 59527  21240.000000  0       5404389.190       4323162.167       -802427.724
10 0 59527  21300.000000  0       5488450.637       4275665.871       -353638.165
10 0 59527  21360.000000  0       5548800.882       4209453.106         96657.881
10 0 59527  21420.000000  0       5585014.192       4125006.629        546541.979
10 0 59527  21480.000000  0       5596772.851       4022890.948        994096.156
10 0 59527  21540.000000  0       5583869.356       3903748.968       1437411.415
99
